SAUDISAT 2              
1 28371U 04025F   26170.57045906  .00000171  00000+0  49334-4 0  9999
2 28371  98.5507 170.6140 0023518 290.5721  69.2953 14.56685005166097
COSMOS 2407             
1 28380U 04028A   26170.48766620  .00000062  00000+0  48321-4 0  9999
2 28380  82.9607  73.1305 0037877 245.2608 288.0490 13.76334921100194
COSMOS 2414             
1 28521U 05002A   26170.33904122  .00000045  00000+0  24837-4 0  9991
2 28521  82.9497  42.0188 0039347 325.0330  34.8249 13.87926691 84110
INMARSAT 4-F1           
1 28628U 05009A   26169.78757057  .00000024  00000+0  00000+0 0  9994
2 28628   5.1714  42.7664 0002613  44.2002 281.6887  1.00271302 77683
SJ-7                    
1 28737U 05024A   26170.52389103  .00006163  00000+0  27566-3 0  9999
2 28737  97.7279 200.6904 0016115  30.2767 329.9396 15.21571938148387
CUBESAT XI-V            
1 28895U 05043F   26170.37304894  .00001074  00000+0  17676-3 0  9999
2 28895  98.2987 326.0406 0013797 193.6141 166.4695 14.72636457102072
HINODE (SOLAR-B)        
1 29479U 06041A   26170.56998425  .00000478  00000+0  90631-4 0  9997
2 29479  98.0545 186.6874 0015968 281.5251  78.4161 14.68625622 55220
SHIJIAN-6 02B (SJ-6 02B)
1 29506U 06046B   26170.61232983  .00001098  00000+0  89721-4 0  9996
2 29506  97.7152 199.6564 0015423  53.5604 306.7040 15.01382485 71109
DMSP 5D-3 F17 (USA 191) 
1 29522U 06050A   26170.57388036 -.00000002  00000+0  21282-4 0  9998
2 29522  98.7378 177.0952 0011086  53.2255 306.9935 14.14993198 12763
LAPAN-TUBSAT            
1 29709U 07001A   26170.61118230  .00000336  00000+0  45072-4 0  9996
2 29709  98.1339 169.8901 0012107 171.5017 188.6405 14.85950903 51517
HAIYANG-1B              
1 31113U 07010A   26170.59201378  .00000065  00000+0  40663-4 0  9991
2 31113  98.3495 152.3440 0013180 188.9814 171.1136 14.31027414   984
COSMO-SKYMED 2          
1 32376U 07059A   26170.59142433  .00000261  00000+0  39337-4 0  9996
2 32376  97.8886 354.1544 0001356  87.9939 272.1430 14.82156601  2369
CARTOSAT-2A             
1 32783U 08021A   26170.61698067  .00000525  00000+0  77280-4 0  9992
2 32783  97.7625 219.2431 0013235 101.7798 258.4900 14.79241495979166
CUTE-1.7+APD II (CO-65) 
1 32785U 08021C   26170.56893747  .00004483  00000+0  28387-3 0  9990
2 32785  97.8277 152.0370 0009529  31.2532 328.9261 15.09469530985551
SEEDS II (CO-66)        
1 32791U 08021J   26170.55102446  .00014814  00000+0  46963-3 0  9994
2 32791  97.7522 168.5617 0000744 349.7207  10.4018 15.32817335987654
YUBILEINY (RS30)        
1 32953U 08025A   26170.59328194 -.00000005  00000+0 -10356-3 0  9998
2 32953  82.5039 353.9426 0018776 308.4356  51.5038 12.43179384819991
FENGYUN 3A              
1 32958U 08026A   26170.58473851  .00000060  00000+0  48994-4 0  9993
2 32958  98.6883 111.3731 0009679 117.3894 242.8269 14.19571552935743
HUANJING 1A (HJ-1A)     
1 33320U 08041A   26170.59371547  .00001257  00000+0  15668-3 0  9994
2 33320  97.6684 156.3395 0020190 127.2458 233.0603 14.83991859958765
HUANJING 1B (HJ-1B)     
1 33321U 08041B   26170.63133986 -.00000053  00000+0 -13975-6 0  9990
2 33321  97.6521 159.5397 0036243 172.8930 187.2806 14.83317810958775
SHIJIAN-6 03A (SJ-6 03A)
1 33408U 08053A   26170.62099899  .00005543  00000+0  28222-3 0  9997
2 33408  97.8405 204.0267 0011383  12.7024 347.4493 15.17188026963333
SHIJIAN-6 03B (SJ-6 03B)
1 33409U 08053B   26170.62747152  .00000183  00000+0  17758-4 0  9998
2 33409  97.8564 190.5601 0020556  36.9864 323.2774 15.04308574963111
